     2.11           G: GLONASS NAV DATA                     RINEX VERSION / TYPE
teqc  2019Feb25                         20210102 00:16:08UTCPGM / RUN BY / DATE
Linux 2.4.21-27.ELsmp|Opteron|gcc|Linux 64|=+               COMMENT
  2021     1     1   -1.862645149231D-09                    CORR TO SYSTEM TIME
                                                            END OF HEADER
 3 20 12 31 23 45  0.0 2.833176404238D-05 0.000000000000D+00 8.637000000000D+04
    1.997111425781D+04 1.119024276733D+00 2.793967723846D-09 0.000000000000D+00
    1.218920263672D+04 8.536128997803D-01 0.000000000000D+00 5.000000000000D+00
   -1.019199707031D+04 3.197331428528D+00 3.725290298462D-09 0.000000000000D+00
17 20 12 31 23 45  0.0 3.872979432344D-04 2.728484105319D-12 8.637000000000D+04
    9.629149414062D+03-7.235126495361D-01 4.656612873077D-09 0.000000000000D+00
    4.940083496094D+03 3.080107688904D+00 9.313225746155D-10 4.000000000000D+00
    2.311160937500D+04-3.607559204102D-01-0.000000000000D+00 0.000000000000D+00
 1 20 12 31 23 45  0.0 7.282570004463D-05 0.000000000000D+00 8.637000000000D+04
   -1.488799804688D+03-2.196182250977D+00 3.725290298462D-09 0.000000000000D+00
    1.292880712891D+04-2.049269676208D+00-0.000000000000D+00 1.000000000000D+00
    2.193169775391D+04 1.059645652771D+00-9.313225746155D-10 0.000000000000D+00
18 20 12 31 23 45  0.0 6.159208714962D-05 9.094947017729D-13 8.637000000000D+04
    1.179557275391D+04-7.483921051025D-01 2.793967723846D-09 0.000000000000D+00
   -1.286186572266D+04 2.439708709717D+00 2.793967723846D-09-3.000000000000D+00
    1.860308447266D+04 2.168258666992D+00-0.000000000000D+00 0.000000000000D+00
19 20 12 31 23 45  0.0-1.260209828615D-04-9.094947017729D-13 8.637000000000D+04
    8.630141601562D+03-4.126396179199D-01-0.000000000000D+00 0.000000000000D+00
   -2.352224169922D+04 5.701713562012D-01 2.793967723846D-09 3.000000000000D+00
    4.809844238281D+03 3.533497810364D+00-0.000000000000D+00 0.000000000000D+00
 8 20 12 31 23 45  0.0-5.658529698849D-05 0.000000000000D+00 8.637000000000D+04
   -1.328645556641D+04-2.191816329956D+00 0.000000000000D+00 0.000000000000D+00
    1.668383789062D+03-1.999713897705D+00-0.000000000000D+00 6.000000000000D+00
    2.175333056641D+04-1.189917564392D+00-2.793967723846D-09 0.000000000000D+00
16 20 12 31 23 45  0.0-9.754672646523D-06-0.000000000000D+00 8.637000000000D+04
    1.002262695312D+04 2.502852439880D+00 1.862645149231D-09 0.000000000000D+00
   -1.319249951172D+04-9.006128311157D-01 2.793967723846D-09-1.000000000000D+00
    1.942142138672D+04-1.888652801514D+00-0.000000000000D+00 0.000000000000D+00
